{"fetched_at":"2026-07-12T07:15:20.031Z","source":"https://celestrak.org/NORAD/elements/gp.php?GROUP=oneweb&FORMAT=JSON","constellation":"oneweb","records":[{"OBJECT_NAME":"ONEWEB-0588","OBJECT_ID":"2023-004P","EPOCH":"2026-07-11T20:15:19.224000","CLASSIFICATION_TYPE":"U","MEAN_MOTION":13.18686445,"ECCENTRICITY":0.00022381,"INCLINATION":87.9184,"RA_OF_ASC_NODE":330.5641,"ARG_OF_PERICENTER":86.0608,"MEAN_ANOMALY":274.078,"EPHEMERIS_TYPE":0,"NORAD_CAT_ID":55153,"ELEMENT_SET_NO":999,"REV_AT_EPOCH":17294,"BSTAR":-0.00010347985,"MEAN_MOTION_DOT":-2.8e-7,"MEAN_MOTION_DDOT":0},{"OBJECT_NAME":"ONEWEB-0598","OBJECT_ID":"2023-004Q","EPOCH":"2026-07-11T11:58:28.481664","CLASSIFICATION_TYPE":"U","MEAN_MOTION":13.11417058,"ECCENTRICITY":0.00024792,"INCLINATION":87.887,"RA_OF_ASC_NODE":16.2267,"ARG_OF_PERICENTER":101.6408,"MEAN_ANOMALY":258.4998,"EPHEMERIS_TYPE":0,"NORAD_CAT_ID":55154,"ELEMENT_SET_NO":999,"REV_AT_EPOCH":16908,"BSTAR":0.0017499002,"MEAN_MOTION_DOT":0.00000633,"MEAN_MOTION_DDOT":0},{"OBJECT_NAME":"ONEWEB-0599","OBJECT_ID":"2023-004R","EPOCH":"2026-07-11T20:32:40.959168","CLASSIFICATION_TYPE":"U","MEAN_MOTION":13.17650337,"ECCENTRICITY":0.00017656,"INCLINATION":87.9135,"RA_OF_ASC_NODE":0.9554,"ARG_OF_PERICENTER":97.8839,"MEAN_ANOMALY":262.2493,"EPHEMERIS_TYPE":0,"NORAD_CAT_ID":55155,"ELEMENT_SET_NO":999,"REV_AT_EPOCH":17073,"BSTAR":-0.00011811211,"MEAN_MOTION_DOT":-3.3e-7,"MEAN_MOTION_DDOT":0},{"OBJECT_NAME":"ONEWEB-0614","OBJECT_ID":"2023-004S","EPOCH":"2026-07-11T22:50:20.918400","CLASSIFICATION_TYPE":"U","MEAN_MOTION":13.11417591,"ECCENTRICITY":0.00018121,"INCLINATION":87.8878,"RA_OF_ASC_NODE":16.1452,"ARG_OF_PERICENTER":81.8889,"MEAN_ANOMALY":278.2444,"EPHEMERIS_TYPE":0,"NORAD_CAT_ID":55156,"ELEMENT_SET_NO":999,"REV_AT_EPOCH":16908,"BSTAR":0.001134876,"MEAN_MOTION_DOT":0.00000415,"MEAN_MOTION_DDOT":0},{"OBJECT_NAME":"ONEWEB-0616","OBJECT_ID":"2023-004T","EPOCH":"2026-07-11T21:33:25.840800","CLASSIFICATION_TYPE":"U","MEAN_MOTION":13.17650728,"ECCENTRICITY":0.00015902,"INCLINATION":87.914,"RA_OF_ASC_NODE":0.9516,"ARG_OF_PERICENTER":123.4789,"MEAN_ANOMALY":236.6495,"EPHEMERIS_TYPE":0,"NORAD_CAT_ID":55157,"ELEMENT_SET_NO":999,"REV_AT_EPOCH":17095,"BSTAR":0.000079474238,"MEAN_MOTION_DOT":4.4e-7,"MEAN_MOTION_DDOT":0},{"OBJECT_NAME":"ONEWEB-0617","OBJECT_ID":"2023-004U","EPOCH":"2026-07-11T13:23:54.523680","CLASSIFICATION_TYPE":"U","MEAN_MOTION":13.11419663,"ECCENTRICITY":0.00019498,"INCLINATION":87.8883,"RA_OF_ASC_NODE":16.2153,"ARG_OF_PERICENTER":76.6901,"MEAN_ANOMALY":283.4444,"EPHEMERIS_TYPE":0,"NORAD_CAT_ID":55158,"ELEMENT_SET_NO":999,"REV_AT_EPOCH":16905,"BSTAR":-0.00014120543,"MEAN_MOTION_DOT":-3.7e-7,"MEAN_MOTION_DDOT":0},{"OBJECT_NAME":"ONEWEB-0618","OBJECT_ID":"2023-004V","EPOCH":"2026-07-11T11:02:30.537024","CLASSIFICATION_TYPE":"U","MEAN_MOTION":15.13354529,"ECCENTRICITY":0.00116279,"INCLINATION":86.9104,"RA_OF_ASC_NODE":167.7784,"ARG_OF_PERICENTER":189.0153,"MEAN_ANOMALY":171.088,"EPHEMERIS_TYPE":0,"NORAD_CAT_ID":55159,"ELEMENT_SET_NO":999,"REV_AT_EPOCH":18593,"BSTAR":0.00014856376,"MEAN_MOTION_DOT":0.00002685,"MEAN_MOTION_DDOT":0},{"OBJECT_NAME":"ONEWEB-0619","OBJECT_ID":"2023-004W","EPOCH":"2026-07-11T11:23:30.824448","CLASSIFICATION_TYPE":"U","MEAN_MOTION":13.17650789,"ECCENTRICITY":0.00012702,"INCLINATION":87.9134,"RA_OF_ASC_NODE":1.0182,"ARG_OF_PERICENTER":76.2795,"MEAN_ANOMALY":283.8478,"EPHEMERIS_TYPE":0,"NORAD_CAT_ID":55160,"ELEMENT_SET_NO":999,"REV_AT_EPOCH":17079,"BSTAR":-0.000082585569,"MEAN_MOTION_DOT":-1.9e-7,"MEAN_MOTION_DDOT":0},{"OBJECT_NAME":"ONEWEB-0620","OBJECT_ID":"2023-004X","EPOCH":"2026-07-11T22:25:54.981696","CLASSIFICATION_TYPE":"U","MEAN_MOTION":13.11418746,"ECCENTRICITY":0.00021064,"INCLINATION":87.8879,"RA_OF_ASC_NODE":16.1479,"ARG_OF_PERICENTER":90.4415,"MEAN_ANOMALY":269.6955,"EPHEMERIS_TYPE":0,"NORAD_CAT_ID":55161,"ELEMENT_SET_NO":999,"REV_AT_EPOCH":16907,"BSTAR":-0.00071001538,"MEAN_MOTION_DOT":-0.00000239,"MEAN_MOTION_DDOT":0},{"OBJECT_NAME":"ONEWEB-0621","OBJECT_ID":"2023-004Y","EPOCH":"2026-07-11T12:05:47.905152","CLASSIFICATION_TYPE":"U","MEAN_MOTION":13.11415533,"ECCENTRICITY":0.00017323,"INCLINATION":87.8869,"RA_OF_ASC_NODE":16.2249,"ARG_OF_PERICENTER":79.4821,"MEAN_ANOMALY":280.6502,"EPHEMERIS_TYPE":0,"NORAD_CAT_ID":55162,"ELEMENT_SET_NO":999,"REV_AT_EPOCH":16899,"BSTAR":0.0013874629,"MEAN_MOTION_DOT":0.00000504,"MEAN_MOTION_DDOT":0},{"OBJECT_NAME":"ONEWEB-0622","OBJECT_ID":"2023-004Z","EPOCH":"2026-07-11T12:13:07.373568","CLASSIFICATION_TYPE":"U","MEAN_MOTION":13.11415157,"ECCENTRICITY":0.00022899,"INCLINATION":87.8891,"RA_OF_ASC_NODE":16.2273,"ARG_OF_PERICENTER":73.2308,"MEAN_ANOMALY":286.9071,"EPHEMERIS_TYPE":0,"NORAD_CAT_ID":55163,"ELEMENT_SET_NO":999,"REV_AT_EPOCH":16898,"BSTAR":0.0011600976,"MEAN_MOTION_DOT":0.00000424,"MEAN_MOTION_DDOT":0},{"OBJECT_NAME":"ONEWEB-0623","OBJECT_ID":"2023-004AA","EPOCH":"2026-07-11T20:22:57.836064","CLASSIFICATION_TYPE":"U","MEAN_MOTION":13.17647432,"ECCENTRICITY":0.00017486,"INCLINATION":87.9124,"RA_OF_ASC_NODE":0.9714,"ARG_OF_PERICENTER":64.6346,"MEAN_ANOMALY":295.4966,"EPHEMERIS_TYPE":0,"NORAD_CAT_ID":55164,"ELEMENT_SET_NO":999,"REV_AT_EPOCH":17083,"BSTAR":-0.00012240972,"MEAN_MOTION_DOT":-3.5e-7,"MEAN_MOTION_DDOT":0},{"OBJECT_NAME":"ONEWEB-0624","OBJECT_ID":"2023-004AB","EPOCH":"2026-07-11T19:26:58.249824","CLASSIFICATION_TYPE":"U","MEAN_MOTION":13.12927924,"ECCENTRICITY":0.0001793,"INCLINATION":87.8963,"RA_OF_ASC_NODE":345.6847,"ARG_OF_PERICENTER":90.3202,"MEAN_ANOMALY":269.8132,"EPHEMERIS_TYPE":0,"NORAD_CAT_ID":55165,"ELEMENT_SET_NO":999,"REV_AT_EPOCH":17130,"BSTAR":0.00053284879,"MEAN_MOTION_DOT":0.00000206,"MEAN_MOTION_DDOT":0},{"OBJECT_NAME":"ONEWEB-0625","OBJECT_ID":"2023-004AC","EPOCH":"2026-07-11T21:57:43.739712","CLASSIFICATION_TYPE":"U","MEAN_MOTION":13.17650994,"ECCENTRICITY":0.00016507,"INCLINATION":87.9134,"RA_OF_ASC_NODE":0.9546,"ARG_OF_PERICENTER":94.6874,"MEAN_ANOMALY":265.4446,"EPHEMERIS_TYPE":0,"NORAD_CAT_ID":55166,"ELEMENT_SET_NO":999,"REV_AT_EPOCH":17083,"BSTAR":0.00010669052,"MEAN_MOTION_DOT":5.4e-7,"MEAN_MOTION_DDOT":0},{"OBJECT_NAME":"ONEWEB-0626","OBJECT_ID":"2023-004AD","EPOCH":"2026-07-11T19:53:49.710912","CLASSIFICATION_TYPE":"U","MEAN_MOTION":13.17650223,"ECCENTRICITY":0.00021406,"INCLINATION":87.9139,"RA_OF_ASC_NODE":0.9712,"ARG_OF_PERICENTER":98.5751,"MEAN_ANOMALY":261.5624,"EPHEMERIS_TYPE":0,"NORAD_CAT_ID":55167,"ELEMENT_SET_NO":999,"REV_AT_EPOCH":17082,"BSTAR":0.00013800311,"MEAN_MOTION_DOT":6.6e-7,"MEAN_MOTION_DDOT":0},{"OBJECT_NAME":"ONEWEB-0627","OBJECT_ID":"2023-004AE","EPOCH":"2026-07-11T12:19:24.469824","CLASSIFICATION_TYPE":"U","MEAN_MOTION":13.17648631,"ECCENTRICITY":0.00020479,"INCLINATION":87.9142,"RA_OF_ASC_NODE":1.0357,"ARG_OF_PERICENTER":84.2193,"MEAN_ANOMALY":275.9172,"EPHEMERIS_TYPE":0,"NORAD_CAT_ID":55168,"ELEMENT_SET_NO":999,"REV_AT_EPOCH":17078,"BSTAR":0.00027675397,"MEAN_MOTION_DOT":0.0000012,"MEAN_MOTION_DDOT":0}]}
